{
    "links": {
        "self": "http://www.neowsapp.com/rest/v1/neo/3662643?api_key=iIulBulltgU6a56xZRHN4H3l9WmuAYTsLGpBGhQ2"
    },
    "id": "3662643",
    "neo_reference_id": "3662643",
    "name": "(2014 DD80)",
    "designation": "2014 DD80",
    "nasa_jpl_url": "http://ssd.jpl.nasa.gov/sbdb.cgi?sstr=3662643",
    "absolute_magnitude_h": 18.7,
    "estimated_diameter": {
        "kilometers": {
            "estimated_diameter_min": 0.4836764882,
            "estimated_diameter_max": 1.0815335068
        },
        "meters": {
            "estimated_diameter_min": 483.6764882185,
            "estimated_diameter_max": 1081.533506775
        },
        "miles": {
            "estimated_diameter_min": 0.3005425432,
            "estimated_diameter_max": 0.6720335566
        },
        "feet": {
            "estimated_diameter_min": 1586.8651696069,
            "estimated_diameter_max": 3548.3383903678
        }
    },
    "is_potentially_hazardous_asteroid": false,
    "close_approach_data": [
        {
            "close_approach_date": "2008-04-13",
            "close_approach_date_full": "2008-Apr-13 21:20",
            "epoch_date_close_approach": 1208121600000,
            "relative_velocity": {
                "kilometers_per_second": "8.7516847963",
                "kilometers_per_hour": "31506.0652667926",
                "miles_per_hour": "19576.6437209134"
            },
            "miss_distance": {
                "astronomical": "1.8995420948",
                "lunar": "738.9218748772",
                "kilometers": "284167451.357418076",
                "miles": "176573466.4530624088"
            },
            "orbiting_body": "Juptr"
        },
        {
            "close_approach_date": "2014-01-20",
            "close_approach_date_full": "2014-Jan-20 17:33",
            "epoch_date_close_approach": 1390239180000,
            "relative_velocity": {
                "kilometers_per_second": "20.0992792133",
                "kilometers_per_hour": "72357.4051680089",
                "miles_per_hour": "44960.0776723109"
            },
            "miss_distance": {
                "astronomical": "0.4602613416",
                "lunar": "179.0416618824",
                "kilometers": "68854116.346702392",
                "miles": "42783963.9790693296"
            },
            "orbiting_body": "Earth"
        },
        {
            "close_approach_date": "2027-01-17",
            "close_approach_date_full": "2027-Jan-17 17:39",
            "epoch_date_close_approach": 1800207540000,
            "relative_velocity": {
                "kilometers_per_second": "16.0964228672",
                "kilometers_per_hour": "57947.122321875",
                "miles_per_hour": "36006.0883116117"
            },
            "miss_distance": {
                "astronomical": "0.3993238391",
                "lunar": "155.3369734099",
                "kilometers": "59737995.769582717",
                "miles": "37119469.3185548146"
            },
            "orbiting_body": "Earth"
        }
    ],
    "orbital_data": {
        "orbit_id": "8",
        "orbit_determination_date": "2017-04-06 08:42:16",
        "first_observation_date": "2014-02-24",
        "last_observation_date": "2014-03-31",
        "data_arc_in_days": 35,
        "observations_used": 41,
        "orbit_uncertainty": "6",
        "minimum_orbit_intersection": ".356522",
        "jupiter_tisserand_invariant": "3.004",
        "epoch_osculation": "2459000.5",
        "eccentricity": ".5329123363157779",
        "semi_major_axis": "2.646811802454489",
        "inclination": "30.6665978085014",
        "ascending_node_longitude": "310.1699074249174",
        "orbital_period": "1572.834477849395",
        "perihelion_distance": "1.236293141020292",
        "perihelion_argument": "132.5784703219728",
        "aphelion_distance": "4.057330463888686",
        "perihelion_time": "2458223.973713675857",
        "mean_anomaly": "177.7360981169053",
        "mean_motion": ".2288861320564664",
        "equinox": "J2000",
        "orbit_class": {
            "orbit_class_type": "AMO",
            "orbit_class_description": "Near-Earth asteroid orbits similar to that of 1221 Amor",
            "orbit_class_range": "1.017 AU < q (perihelion) < 1.3 AU"
        }
    },
    "is_sentry_object": false
}